[{"OBJECT_NAME":"STARLINK-34581","OBJECT_ID":"2025-144X","EPOCH":"2026-03-09T14:19:27.674112","MEAN_MOTION":15.30185599,"ECCENTRICITY":0.0001364,"INCLINATION":53.1583,"RA_OF_ASC_NODE":181.7583,"ARG_OF_PERICENTER":77.0417,"MEAN_ANOMALY":283.0736,"EPHEMERIS_TYPE":0,"CLASSIFICATION_TYPE":"U","NORAD_CAT_ID":64745,"ELEMENT_SET_NO":999,"REV_AT_EPOCH":3969,"BSTAR":0.000567,"MEAN_MOTION_DOT":0.00016463,"MEAN_MOTION_DDOT":0},{"OBJECT_NAME":"239ALFEROV (RS61S)","OBJECT_ID":"2025-155F","EPOCH":"2026-03-09T21:46:33.382848","MEAN_MOTION":15.29933217,"ECCENTRICITY":0.00084878,"INCLINATION":97.4469,"RA_OF_ASC_NODE":37.6373,"ARG_OF_PERICENTER":151.5904,"MEAN_ANOMALY":208.58,"EPHEMERIS_TYPE":0,"CLASSIFICATION_TYPE":"U","NORAD_CAT_ID":64881,"ELEMENT_SET_NO":999,"REV_AT_EPOCH":6561,"BSTAR":0.00067233359,"MEAN_MOTION_DOT":0.00019457,"MEAN_MOTION_DDOT":0}]
